[{"OBJECT_NAME":"STARLINK-34245","OBJECT_ID":"2025-113Z","EPOCH":"2026-03-09T09:05:40.775424","MEAN_MOTION":15.30193547,"ECCENTRICITY":0.00013575,"INCLINATION":53.1601,"RA_OF_ASC_NODE":92.1418,"ARG_OF_PERICENTER":79.4529,"MEAN_ANOMALY":280.6624,"EPHEMERIS_TYPE":0,"CLASSIFICATION_TYPE":"U","NORAD_CAT_ID":64193,"ELEMENT_SET_NO":999,"REV_AT_EPOCH":4498,"BSTAR":0.00096576002,"MEAN_MOTION_DOT":0.00028347,"MEAN_MOTION_DDOT":0},{"OBJECT_NAME":"COSMOS 2251 DEB","OBJECT_ID":"1993-036AWN","EPOCH":"2026-03-09T06:26:08.321568","MEAN_MOTION":15.11257706,"ECCENTRICITY":0.00842289,"INCLINATION":74.0116,"RA_OF_ASC_NODE":284.5024,"ARG_OF_PERICENTER":350.308,"MEAN_ANOMALY":9.6482,"EPHEMERIS_TYPE":0,"CLASSIFICATION_TYPE":"U","NORAD_CAT_ID":35996,"ELEMENT_SET_NO":999,"REV_AT_EPOCH":73632,"BSTAR":0.00055219842,"MEAN_MOTION_DOT":0.00010085,"MEAN_MOTION_DDOT":0}]
